STRIX-1                 
1 53815U 22113A   26195.92220259  .00014394  00000+0  35085-3 0  9999
2 53815  97.4481 258.4617 0005511 132.7982 227.3728 15.40994605211710
STRIX-3                 
1 59224U 24047A   26195.96643713  .00004715  00000+0  22310-3 0  9998
2 59224  97.6633 172.0619 0012006 335.7739  24.2929 15.19808214128963
STRIX-4                 
1 60352U 24137A   26195.97631611  .00010144  00000+0  31555-3 0  9991
2 60352  43.0152 126.8110 0016083 130.2879 229.9384 15.33308369108287
STRIX-2                 
1 62406U 24248A   26195.98894443  .00002435  00000+0  15705-3 0  9994
2 62406  97.6298 151.4749 0013651 236.2969 123.6959 15.09190277 85789
STRIX-5                 
1 65971U 25229A   26195.91841215  .00001721  00000+0  13237-3 0  9991
2 65971  41.9272 133.6018 0037856 235.7625 123.9613 15.04587510 41158
STRIX-6                 
1 68291U 26056A   26195.43667130  .00001092  00000+0  10697-3 0  9995
2 68291  50.2825 220.9684 0016629 348.1909  11.8648 15.00326319 17364
STRIX-7                 
1 69177U 26112A   26195.91556554  .00001988  00000+0  16769-3 0  9992
2 69177  44.9081  46.7960 0024698 206.2044 153.7579 15.01607524  8047
STRIX-8                 
1 69701U 26146A   26195.88693850  .00002423  00000+0  18383-3 0  9998
2 69701  41.9903  14.8006 0007194  20.3901 339.7212 15.04432873  2732
