{"fetched_at":"2026-07-15T06:36:28.983Z","source":"https://celestrak.org/NORAD/elements/gp.php?NAME=STRIX&FORMAT=JSON","constellation":"synspective","records":[{"OBJECT_NAME":"STRIX-1","OBJECT_ID":"2022-113A","EPOCH":"2026-07-14T22:07:58.303776","CLASSIFICATION_TYPE":"U","MEAN_MOTION":15.40994605,"ECCENTRICITY":0.00055111,"INCLINATION":97.4481,"RA_OF_ASC_NODE":258.4617,"ARG_OF_PERICENTER":132.7982,"MEAN_ANOMALY":227.3728,"EPHEMERIS_TYPE":0,"NORAD_CAT_ID":53815,"ELEMENT_SET_NO":999,"REV_AT_EPOCH":21171,"BSTAR":0.00035084641,"MEAN_MOTION_DOT":0.00014394,"MEAN_MOTION_DDOT":0},{"OBJECT_NAME":"STRIX-3","OBJECT_ID":"2024-047A","EPOCH":"2026-07-14T23:11:40.168032","CLASSIFICATION_TYPE":"U","MEAN_MOTION":15.19808214,"ECCENTRICITY":0.00120062,"INCLINATION":97.6633,"RA_OF_ASC_NODE":172.0619,"ARG_OF_PERICENTER":335.7739,"MEAN_ANOMALY":24.2929,"EPHEMERIS_TYPE":0,"NORAD_CAT_ID":59224,"ELEMENT_SET_NO":999,"REV_AT_EPOCH":12896,"BSTAR":0.00022310444,"MEAN_MOTION_DOT":0.00004715,"MEAN_MOTION_DDOT":0},{"OBJECT_NAME":"STRIX-4","OBJECT_ID":"2024-137A","EPOCH":"2026-07-14T23:25:53.711904","CLASSIFICATION_TYPE":"U","MEAN_MOTION":15.33308369,"ECCENTRICITY":0.00160833,"INCLINATION":43.0152,"RA_OF_ASC_NODE":126.811,"ARG_OF_PERICENTER":130.2879,"MEAN_ANOMALY":229.9384,"EPHEMERIS_TYPE":0,"NORAD_CAT_ID":60352,"ELEMENT_SET_NO":999,"REV_AT_EPOCH":10828,"BSTAR":0.00031555342,"MEAN_MOTION_DOT":0.00010144,"MEAN_MOTION_DDOT":0},{"OBJECT_NAME":"STRIX-2","OBJECT_ID":"2024-248A","EPOCH":"2026-07-14T23:44:04.798752","CLASSIFICATION_TYPE":"U","MEAN_MOTION":15.09190277,"ECCENTRICITY":0.00136513,"INCLINATION":97.6298,"RA_OF_ASC_NODE":151.4749,"ARG_OF_PERICENTER":236.2969,"MEAN_ANOMALY":123.6959,"EPHEMERIS_TYPE":0,"NORAD_CAT_ID":62406,"ELEMENT_SET_NO":999,"REV_AT_EPOCH":8578,"BSTAR":0.00015705149,"MEAN_MOTION_DOT":0.00002435,"MEAN_MOTION_DDOT":0},{"OBJECT_NAME":"STRIX-5","OBJECT_ID":"2025-229A","EPOCH":"2026-07-14T22:02:30.809760","CLASSIFICATION_TYPE":"U","MEAN_MOTION":15.0458751,"ECCENTRICITY":0.00378561,"INCLINATION":41.9272,"RA_OF_ASC_NODE":133.6018,"ARG_OF_PERICENTER":235.7625,"MEAN_ANOMALY":123.9613,"EPHEMERIS_TYPE":0,"NORAD_CAT_ID":65971,"ELEMENT_SET_NO":999,"REV_AT_EPOCH":4115,"BSTAR":0.00013237477,"MEAN_MOTION_DOT":0.00001721,"MEAN_MOTION_DDOT":0},{"OBJECT_NAME":"STRIX-6","OBJECT_ID":"2026-056A","EPOCH":"2026-07-14T10:28:48.400320","CLASSIFICATION_TYPE":"U","MEAN_MOTION":15.00326319,"ECCENTRICITY":0.00166294,"INCLINATION":50.2825,"RA_OF_ASC_NODE":220.9684,"ARG_OF_PERICENTER":348.1909,"MEAN_ANOMALY":11.8648,"EPHEMERIS_TYPE":0,"NORAD_CAT_ID":68291,"ELEMENT_SET_NO":999,"REV_AT_EPOCH":1736,"BSTAR":0.00010697423,"MEAN_MOTION_DOT":0.00001092,"MEAN_MOTION_DDOT":0},{"OBJECT_NAME":"STRIX-7","OBJECT_ID":"2026-112A","EPOCH":"2026-07-14T21:58:24.862656","CLASSIFICATION_TYPE":"U","MEAN_MOTION":15.01607524,"ECCENTRICITY":0.00246987,"INCLINATION":44.9081,"RA_OF_ASC_NODE":46.796,"ARG_OF_PERICENTER":206.2044,"MEAN_ANOMALY":153.7579,"EPHEMERIS_TYPE":0,"NORAD_CAT_ID":69177,"ELEMENT_SET_NO":999,"REV_AT_EPOCH":804,"BSTAR":0.00016768961,"MEAN_MOTION_DOT":0.00001988,"MEAN_MOTION_DDOT":0},{"OBJECT_NAME":"STRIX-8","OBJECT_ID":"2026-146A","EPOCH":"2026-07-14T21:17:11.486400","CLASSIFICATION_TYPE":"U","MEAN_MOTION":15.04432873,"ECCENTRICITY":0.00071943,"INCLINATION":41.9903,"RA_OF_ASC_NODE":14.8006,"ARG_OF_PERICENTER":20.3901,"MEAN_ANOMALY":339.7212,"EPHEMERIS_TYPE":0,"NORAD_CAT_ID":69701,"ELEMENT_SET_NO":999,"REV_AT_EPOCH":273,"BSTAR":0.00018383106,"MEAN_MOTION_DOT":0.00002423,"MEAN_MOTION_DDOT":0}]}
